{
  "id": "kl",
  "name_en": "Kerala",
  "name_ml": "കേരളം",
  "category": "normal",
  "districts": [
    {
      "id": "3",
      "name_en": "Pathanamthitta",
      "name_ml": "പത്തനംതിട്ട",
      "is_active": true,
      "district_category": {
        "category": "Normal"
      }
    },
    {
      "id": "4",
      "name_en": "Alappuzha",
      "name_ml": "ആലപ്പുഴ",
      "is_active": true,
      "district_category": {
        "category": "Normal"
      }
    },
    {
      "id": "5",
      "name_en": "Kottayam",
      "name_ml": "കോട്ടയം",
      "is_active": true,
      "district_category": {
        "category": "Normal"
      }
    },
    {
      "id": "6",
      "name_en": "Idukki",
      "name_ml": "ഇടുക്കി",
      "is_active": true,
      "district_category": {
        "category": "Normal"
      }
    },
    {
      "id": "9",
      "name_en": "Palakkad",
      "name_ml": "പാലക്കാട്",
      "is_active": true,
      "district_category": {
        "category": "Normal"
      }
    },
    {
      "id": "10",
      "name_en": "Malappuram",
      "name_ml": "മലപ്പുറം",
      "is_active": true,
      "district_category": {
        "category": "Normal"
      }
    },
    {
      "id": "11",
      "name_en": "Kozhikode",
      "name_ml": "കോഴിക്കോട്",
      "is_active": true,
      "district_category": {
        "category": "Normal"
      }
    },
    {
      "id": "12",
      "name_en": "Wayanad",
      "name_ml": "വയനാട്",
      "is_active": true,
      "district_category": {
        "category": "Normal"
      }
    },
    {
      "id": "13",
      "name_en": "Kannur",
      "name_ml": "കണ്ണൂർ",
      "is_active": true,
      "district_category": {
        "category": "Normal"
      }
    },
    {
      "id": "14",
      "name_en": "Kasaragod",
      "name_ml": "കാസര്‍ഗോഡ്",
      "is_active": true,
      "district_category": {
        "category": "Normal"
      }
    },
    {
      "id": "1",
      "name_en": "Thiruvananthapuram",
      "name_ml": "തിരുവനന്തപുരം",
      "is_active": false,
      "district_category": {
        "category": "Normal"
      }
    },
    {
      "id": "2",
      "name_en": "Kollam",
      "name_ml": "കൊല്ലം",
      "is_active": false,
      "district_category": {
        "category": "Normal"
      }
    },
    {
      "id": "7",
      "name_en": "Ernakulam",
      "name_ml": "എറണാകുളം",
      "is_active": false,
      "district_category": {
        "category": "Normal"
      }
    },
    {
      "id": "8",
      "name_en": "Thrissur",
      "name_ml": "തൃശ്ശൂർ",
      "is_active": false,
      "district_category": {
        "category": "Normal"
      }
    }
  ],
  "geojson_links": {
    "outline": "geojson/states/outlines/kerala.geojson",
    "districts": "geojson/states/with-districts/kerala.geojson"
  }
}